CUTE-1 (CO-55)          
1 27844U 03031E   26141.48326484  .00000173  00000+0  93673-4 0  9997
2 27844  98.6743 150.3782 0008294 262.0752  97.9485 14.24317125187870
CUBESAT XI-IV (CO-57)   
1 27848U 03031J   26141.45835313  .00000152  00000+0  85962-4 0  9993
2 27848  98.6774 150.0876 0008219 283.6237  76.4026 14.23604667187572
CUBESAT XI-V            
1 28895U 05043F   26141.35923738  .00000831  00000+0  13900-3 0  9995
2 28895  98.2957 296.4236 0012822 292.4191  67.5657 14.72549818 97808
CUTE-1.7+APD II (CO-65) 
1 32785U 08021C   26141.59744284  .00002996  00000+0  19266-3 0  9995
2 32785  97.8272 122.4718 0010718 114.5514 245.6833 15.09163611981186
CANX-2                  
1 32790U 08021H   26141.30379500  .00002533  00000+0  18094-3 0  9990
2 32790  97.8621 120.5667 0011584 129.7813 230.4435 15.05391524980769
SEEDS II (CO-66)        
1 32791U 08021J   26141.42568537  .00012724  00000+0  41774-3 0  9998
2 32791  97.7526 138.0681 0004608  67.6438 292.5291 15.31723964983190
SWISSCUBE               
1 35932U 09051B   26141.21168286  .00000644  00000+0  13700-3 0  9992
2 35932  98.4053  48.6290 0005686 305.3397  54.7272 14.62421846885216
BEESAT-1                
1 35933U 09051C   26140.45415592  .00000522  00000+0  11466-3 0  9995
2 35933  98.3982  47.5514 0004510 327.5835  32.5088 14.61668848885136
ITUPSAT1                
1 35935U 09051E   26141.17447264  .00000492  00000+0  11173-3 0  9999
2 35935  98.4067  47.5032 0006862 332.8166  27.2673 14.60394013884797
TISAT 1                 
1 36799U 10035E   26140.53828391  .00014056  00000+0  47855-3 0  9992
2 36799  98.0706  84.6627 0002805  39.3668 320.7774 15.30538753863477
AEROCUBE 4.5A           
1 38767U 12048K   26141.25436939  .00149660  00000+0  77915-3 0  9998
2 38767  64.6283 124.2160 0018264 215.5677 144.4262 15.80022698368384
STRAND-1                
1 39090U 13009E   26141.46034244  .00000158  00000+0  67402-4 0  9991
2 39090  98.3916 322.3538 0007710 317.1880  42.8706 14.37145301693226
